{
  "type": "FeatureCollection",
  "features": [
    {
      "type": "Feature",
      "properties": {
        "norad_id": 43260,
        "name": "GAOFEN-1 03",
        "group": "resource",
        "lat": -47.9060389849772,
        "lon": 45.61274954051615,
        "alt_km": 646.1852327492079,
        "timestamp": "2025-12-04T21:36:15.531957+00:00",
        "meta_object_name": "GAOFEN-1 03",
        "meta_object_id": "2018-031B",
        "meta_epoch": "2025-12-04T15:19:03.111744",
        "meta_mean_motion": 14.76411098,
        "meta_eccentricity": 0.00025452,
        "meta_inclination": 98.081,
        "meta_ra_of_asc_node": 36.302,
        "meta_arg_of_pericenter": 354.4331,
        "meta_mean_anomaly": 5.6849,
        "meta_ephemeris_type": 0,
        "meta_classification_type": "U",
        "meta_norad_cat_id": 43260,
        "meta_element_set_no": 999,
        "meta_rev_at_epoch": 41398,
        "meta_bstar": 0.00027996377,
        "meta_mean_motion_dot": 1.894e-05,
        "meta_mean_motion_ddot": 0,
        "tle_line1": "1 43260U 18031B   25338.63823046  .00001894  00000+0  27996-3 0  9998",
        "tle_line2": "2 43260  98.0810  36.3020 0002545 354.4331   5.6849 14.76411098413984"
      },
      "geometry": {
        "type": "Point",
        "coordinates": [
          45.61274954051615,
          -47.9060389849772
        ]
      }
    },
    {
      "type": "Feature",
      "properties": {
        "norad_id": 43262,
        "name": "GAOFEN-1 04",
        "group": "resource",
        "lat": 77.58858169501926,
        "lon": -3.484174752370378,
        "alt_km": 632.4825534955789,
        "timestamp": "2025-12-04T21:36:15.531967+00:00",
        "meta_object_name": "GAOFEN-1 04",
        "meta_object_id": "2018-031D",
        "meta_epoch": "2025-12-04T14:44:05.226432",
        "meta_mean_motion": 14.76424038,
        "meta_eccentricity": 0.00013083,
        "meta_inclination": 98.082,
        "meta_ra_of_asc_node": 36.4458,
        "meta_arg_of_pericenter": 61.8727,
        "meta_mean_anomaly": 298.2615,
        "meta_ephemeris_type": 0,
        "meta_classification_type": "U",
        "meta_norad_cat_id": 43262,
        "meta_element_set_no": 999,
        "meta_rev_at_epoch": 41397,
        "meta_bstar": 0.00027726071,
        "meta_mean_motion_dot": 1.876e-05,
        "meta_mean_motion_ddot": 0,
        "tle_line1": "1 43262U 18031D   25338.61394938  .00001876  00000+0  27726-3 0  9992",
        "tle_line2": "2 43262  98.0820  36.4458 0001308  61.8727 298.2615 14.76424038413975"
      },
      "geometry": {
        "type": "Point",
        "coordinates": [
          -3.484174752370378,
          77.58858169501926
        ]
      }
    },
    {
      "type": "Feature",
      "properties": {
        "norad_id": 43437,
        "name": "SENTINEL-3B",
        "group": "resource",
        "lat": -27.300631725829504,
        "lon": -140.2972690820676,
        "alt_km": 808.5106371120492,
        "timestamp": "2025-12-04T21:36:15.531984+00:00",
        "meta_object_name": "SENTINEL-3B",
        "meta_object_id": "2018-039A",
        "meta_epoch": "2025-12-04T15:35:07.444608",
        "meta_mean_motion": 14.26738162,
        "meta_eccentricity": 0.00014757,
        "meta_inclination": 98.6277,
        "meta_ra_of_asc_node": 43.9502,
        "meta_arg_of_pericenter": 110.5366,
        "meta_mean_anomaly": 249.5973,
        "meta_ephemeris_type": 0,
        "meta_classification_type": "U",
        "meta_norad_cat_id": 43437,
        "meta_element_set_no": 999,
        "meta_rev_at_epoch": 39638,
        "meta_bstar": 0.00015034966,
        "meta_mean_motion_dot": 3.2e-06,
        "meta_mean_motion_ddot": 0,
        "tle_line1": "1 43437U 18039A   25338.64939172  .00000320  00000+0  15035-3 0  9995",
        "tle_line2": "2 43437  98.6277  43.9502 0001475 110.5366 249.5973 14.26738162396382"
      },
      "geometry": {
        "type": "Point",
        "coordinates": [
          -140.2972690820676,
          -27.300631725829504
        ]
      }
    },
    {
      "type": "Feature",
      "properties": {
        "norad_id": 43461,
        "name": "GAOFEN-5 01",
        "group": "resource",
        "lat": -31.78878574529748,
        "lon": -52.9946566615806,
        "alt_km": 697.1207868675574,
        "timestamp": "2025-12-04T21:36:15.531994+00:00",
        "meta_object_name": "GAOFEN-5 01",
        "meta_object_id": "2018-043A",
        "meta_epoch": "2025-12-04T11:53:06.566496",
        "meta_mean_motion": 14.60395735,
        "meta_eccentricity": 0.00014992,
        "meta_inclination": 98.4313,
        "meta_ra_of_asc_node": 301.3191,
        "meta_arg_of_pericenter": 7.6077,
        "meta_mean_anomaly": 352.5145,
        "meta_ephemeris_type": 0,
        "meta_classification_type": "U",
        "meta_norad_cat_id": 43461,
        "meta_element_set_no": 999,
        "meta_rev_at_epoch": 40327,
        "meta_bstar": 0.0002184726,
        "meta_mean_motion_dot": 1.009e-05,
        "meta_mean_motion_ddot": 0,
        "tle_line1": "1 43461U 18043A   25338.49521489  .00001009  00000+0  21847-3 0  9991",
        "tle_line2": "2 43461  98.4313 301.3191 0001499   7.6077 352.5145 14.60395735403270"
      },
      "geometry": {
        "type": "Point",
        "coordinates": [
          -52.9946566615806,
          -31.78878574529748
        ]
      }
    },
    {
      "type": "Feature",
      "properties": {
        "norad_id": 43484,
        "name": "GAOFEN-6",
        "group": "resource",
        "lat": -48.17439980597394,
        "lon": -145.3855487295929,
        "alt_km": 654.4873205253853,
        "timestamp": "2025-12-04T21:36:15.532004+00:00",
        "meta_object_name": "GAOFEN-6",
        "meta_object_id": "2018-048A",
        "meta_epoch": "2025-12-04T09:11:16.505088",
        "meta_mean_motion": 14.7654025,
        "meta_eccentricity": 0.00133256,
        "meta_inclination": 97.8043,
        "meta_ra_of_asc_node": 42.9302,
        "meta_arg_of_pericenter": 88.362,
        "meta_mean_anomaly": 271.9117,
        "meta_ephemeris_type": 0,
        "meta_classification_type": "U",
        "meta_norad_cat_id": 43484,
        "meta_element_set_no": 999,
        "meta_rev_at_epoch": 40464,
        "meta_bstar": 0.00011617493,
        "meta_mean_motion_dot": 7.62e-06,
        "meta_mean_motion_ddot": 0,
        "tle_line1": "1 43484U 18048A   25338.38282992  .00000762  00000+0  11617-3 0  9991",
        "tle_line2": "2 43484  97.8043  42.9302 0013325  88.3620 271.9117 14.76540250404647"
      },
      "geometry": {
        "type": "Point",
        "coordinates": [
          -145.3855487295929,
          -48.17439980597394
        ]
      }
    },
    {
      "type": "Feature",
      "properties": {
        "norad_id": 43585,
        "name": "GAOFEN-11 01",
        "group": "resource",
        "lat": 27.108372958982635,
        "lon": -134.4095663092998,
        "alt_km": 422.1742520943026,
        "timestamp": "2025-12-04T21:36:15.532015+00:00",
        "meta_object_name": "GAOFEN-11 01",
        "meta_object_id": "2018-063A",
        "meta_epoch": "2025-12-04T14:44:44.640384",
        "meta_mean_motion": 15.48880096,
        "meta_eccentricity": 0.00048239,
        "meta_inclination": 97.1576,
        "meta_ra_of_asc_node": 41.6187,
        "meta_arg_of_pericenter": 349.1401,
        "meta_mean_anomaly": 10.9745,
        "meta_ephemeris_type": 0,
        "meta_classification_type": "U",
        "meta_norad_cat_id": 43585,
        "meta_element_set_no": 999,
        "meta_rev_at_epoch": 41016,
        "meta_bstar": 0.00050205018,
        "meta_mean_motion_dot": 0.00027027,
        "meta_mean_motion_ddot": 0,
        "tle_line1": "1 43585U 18063A   25338.61440556  .00027027  00000+0  50205-3 0  9997",
        "tle_line2": "2 43585  97.1576  41.6187 0004823 349.1401  10.9745 15.48880096410165"
      },
      "geometry": {
        "type": "Point",
        "coordinates": [
          -134.4095663092998,
          27.108372958982635
        ]
      }
    },
    {
      "type": "Feature",
      "properties": {
        "norad_id": 43613,
        "name": "ICESAT-2",
        "group": "resource",
        "lat": 62.40861703588925,
        "lon": 62.465865078623736,
        "alt_km": 474.63445056425553,
        "timestamp": "2025-12-04T21:36:15.532025+00:00",
        "meta_object_name": "ICESAT-2",
        "meta_object_id": "2018-070A",
        "meta_epoch": "2025-12-04T14:48:22.237056",
        "meta_mean_motion": 15.28286229,
        "meta_eccentricity": 4.974e-05,
        "meta_inclination": 92.0056,
        "meta_ra_of_asc_node": 238.5445,
        "meta_arg_of_pericenter": 145.5417,
        "meta_mean_anomaly": 214.5865,
        "meta_ephemeris_type": 0,
        "meta_classification_type": "U",
        "meta_norad_cat_id": 43613,
        "meta_element_set_no": 999,
        "meta_rev_at_epoch": 40274,
        "meta_bstar": 0.0010101293,
        "meta_mean_motion_dot": 0.00027881,
        "meta_mean_motion_ddot": 0,
        "tle_line1": "1 43613U 18070A   25338.61692404  .00027881  00000+0  10101-2 0  9996",
        "tle_line2": "2 43613  92.0056 238.5445 0000497 145.5417 214.5865 15.28286229402742"
      },
      "geometry": {
        "type": "Point",
        "coordinates": [
          62.465865078623736,
          62.40861703588925
        ]
      }
    }
  ]
}